NORAD_CAT_ID,OBJECT_NAME,OBJECT_TYPE,EPOCH,MEAN_MOTION,ECCENTRICITY,INCLINATION,RA_OF_ASC_NODE,ARG_OF_PERICENTER,MEAN_ANOMALY,BSTAR,MEAN_MOTION_DOT,MEAN_MOTION_DDOT,TLE_LINE0,TLE_LINE1,TLE_LINE2,SEMIMAJOR_AXIS,PERIOD,APOGEE,PERIGEE,DECAYED
51755.0,STARLINK-3460,PAYLOAD,2022-05-20 22:00:00,15.39629076,0.000118,53.2177,65.7575,68.4109,322.9895,-0.019518,-0.00721522,0.0,0 STARLINK-3460,1 51755U 22016AT  22140.91667824 -.00721522  00000-0 -19518-1 0  9992,2 51755  53.2177  65.7575 0001180  68.4109 322.9895 15.39629076 15128,6825.342,93.529,448.013,446.402,0.0
51755.0,STARLINK-3460,PAYLOAD,2022-05-21 06:00:00,15.39114981,0.0001232,53.2174,64.1902,62.2919,17.3868,-0.01964,-0.00714382,0.0,0 STARLINK-3460,1 51755U 22016AT  22141.25001157 -.00714382  00000-0 -19640-1 0  9993,2 51755  53.2174  64.1902 0001232  62.2919  17.3868 15.39114981  1305,6826.861999999999,93.56,449.568,447.886,0.0
51755.0,STARLINK-3460,PAYLOAD,2022-05-21 14:00:01,15.38606128,0.000128,53.2175,62.621,63.7012,63.7073,-0.020029,-0.0071628,0.0,0 STARLINK-3460,1 51755U 22016AT  22141.58335648 -.00716280  00000-0 -20029-1 0  9996,2 51755  53.2175  62.6210 0001280  63.7012  63.7073 15.38606128  1305,6828.3669999999975,93.591,451.106,449.358,0.0
51755.0,STARLINK-3460,PAYLOAD,2022-05-21 22:00:00,15.38097153,0.0001478,53.2176,61.0557,57.1192,117.2766,-0.020422,-0.00718118,0.0,0 STARLINK-3460,1 51755U 22016AT  22141.91667824 -.00718118  00000-0 -20422-1 0  9996,2 51755  53.2176  61.0557 0001478  57.1192 117.2766 15.38097153  1304,6829.874,93.622,452.74800000000016,450.729,0.0
51755.0,STARLINK-3460,PAYLOAD,2022-05-22 06:00:00,15.37584497,0.0001311,53.2172,59.4918,79.8989,140.9363,-0.020607,-0.00712962,0.0,0 STARLINK-3460,1 51755U 22016AT  22142.25001157 -.00712962  00000-0 -20607-1 0  9991,2 51755  53.2172  59.4918 0001311  79.8989 140.9363 15.37584497 15338,6831.392,93.653,454.152,452.361,0.0
51755.0,STARLINK-3460,PAYLOAD,2022-05-22 14:00:01,15.37075826,0.0001309,53.2175,57.9263,69.5699,197.0926,-0.021021,-0.00715149,0.0,0 STARLINK-3460,1 51755U 22016AT  22142.58334491 -.00715149  00000-0 -21021-1 0  9998,2 51755  53.2175  57.9263 0001309  69.5699 197.0926 15.37075826  1309,6832.899,93.684,455.658,453.869,0.0
51755.0,STARLINK-3460,PAYLOAD,2022-05-22 22:00:01,15.36567599,0.0001330999999999,53.2176,56.3647,62.5638,249.3754,-0.02147,-0.00718218,0.0,0 STARLINK-3460,1 51755U 22016AT  22142.91668981 -.00718218  00000-0 -21470-1 0  9997,2 51755  53.2176  56.3647 0001331  62.5638 249.3754 15.36567599  1302,6834.405,93.715,457.18,455.361,0.0
51755.0,STARLINK-3460,PAYLOAD,2022-05-23 06:00:00,15.36056655,0.0001121,53.2172,54.8045,84.8863,271.5893,-0.021749,-0.0071578,0.0,0 STARLINK-3460,1 51755U 22016AT  22143.25001157 -.00715780  00000-0 -21749-1 0  9991,2 51755  53.2172  54.8045 0001121  84.8863 271.5893 15.36056655 15488,6835.920999999999,93.747,458.552,457.019,0.0
51755.0,STARLINK-3460,PAYLOAD,2022-05-23 14:00:01,15.35545605,0.0001142,53.2174,53.2426,67.6182,332.8474,-0.022088,-0.00715103,0.0,0 STARLINK-3460,1 51755U 22016AT  22143.58334491 -.00715103  00000-0 -22088-1 0  9993,2 51755  53.2174  53.2426 0001142  67.6182 332.8474 15.35545605  1301,6837.437,93.778,460.083,458.522,0.0
51755.0,STARLINK-3460,PAYLOAD,2022-05-23 22:00:01,15.35037968,0.0001278,53.2174,51.6849,63.4445,20.459,-0.022583,-0.0071899,0.0,0 STARLINK-3460,1 51755U 22016AT  22143.91668981 -.00718990  00000-0 -22583-1 0  9991,2 51755  53.2174  51.6849 0001278  63.4445  20.4590 15.35037968  1305,6838.945,93.809,461.684,459.936,0.0
51755.0,STARLINK-3460,PAYLOAD,2022-05-24 06:00:02,15.34526708,0.0001218,53.2171,50.128,80.1343,46.5316,-0.022856,-0.00716079,0.0,0 STARLINK-3460,1 51755U 22016AT  22144.25002315 -.00716079  00000-0 -22856-1 0  9991,2 51755  53.2171  50.1280 0001218  80.1343  46.5316 15.34526708 15643,6840.464,93.84,463.162,461.495,0.0
51755.0,STARLINK-3460,PAYLOAD,2022-05-24 14:00:01,15.34016647,0.0001334,53.2171,48.5698,69.3634,99.3896,-0.02324,-0.00716334,0.0,0 STARLINK-3460,1 51755U 22016AT  22144.58334491 -.00716334  00000-0 -23240-1 0  9992,2 51755  53.2171  48.5698 0001334  69.3634  99.3896 15.34016647  1301,6841.98,93.871,464.758,462.932,0.0
51755.0,STARLINK-3460,PAYLOAD,2022-05-24 22:00:00,15.33505756,0.0001426,53.2174,47.0157,71.1298,139.16,-0.023568,-0.00714852,0.0,0 STARLINK-3460,1 51755U 22016AT  22144.91667824 -.00714852  00000-0 -23568-1 0  9994,2 51755  53.2174  47.0157 0001426  71.1298 139.1600 15.33505756  1306,6843.499,93.902,466.34,464.389,0.0
51755.0,STARLINK-3460,PAYLOAD,2022-05-25 06:00:00,15.32998227,0.0001291999999999,53.217,45.4623,87.8187,163.3938,-0.024083,-0.00718482,0.0,0 STARLINK-3460,1 51755U 22016AT  22145.25001157 -.00718482  00000-0 -24083-1 0  9999,2 51755  53.2170  45.4623 0001292  87.8187 163.3938 15.32998227 15793,6845.01,93.934,467.759,465.99,0.0
51755.0,STARLINK-3460,PAYLOAD,2022-05-25 14:00:01,15.32485456,0.0001235,53.2173,43.9077,80.0695,211.4567,-0.024312,-0.00713996,0.0,0 STARLINK-3460,1 51755U 22016AT  22145.58334491 -.00713996  00000-0 -24312-1 0  9995,2 51755  53.2173  43.9077 0001235  80.0695 211.4567 15.32485456  1308,6846.5369999999975,93.965,469.247,467.556,0.0
51755.0,STARLINK-3460,PAYLOAD,2022-05-25 20:34:00,15.33544123,3.41e-05,53.2172,42.6477,129.8733,230.23,-0.0056195,-0.00180766,0.0,0 STARLINK-3460,1 51755U 22016AT  22145.85694997 -.00180766  00000-0 -56195-2 0  9993,2 51755  53.2172  42.6477 0000341 129.8733 230.2300 15.33544123 14776,6843.385,93.9,465.484,465.017,0.0
51755.0,STARLINK-3460,PAYLOAD,2022-05-26 06:00:00,15.31468157,0.0001119,53.2172,40.8075,86.4712,283.8373,-0.025242,-0.00717622,0.0,0 STARLINK-3460,1 51755U 22016AT  22146.25001157 -.00717622  00000-0 -25242-1 0  9993,2 51755  53.2172  40.8075 0001119  86.4712 283.8373 15.31468157 15943,6849.568,94.027,472.2,470.667,0.0
51755.0,STARLINK-3460,PAYLOAD,2022-05-26 14:00:01,15.30955786,0.0001157,53.2173,39.2565,70.1422,338.6417,-0.025539,-0.00714741,0.0,0 STARLINK-3460,1 51755U 22016AT  22146.58334491 -.00714741  00000-0 -25539-1 0  9997,2 51755  53.2173  39.2565 0001157  70.1422 338.6417 15.30955786  1301,6851.096,94.059,473.754,472.169,0.0
51755.0,STARLINK-3460,PAYLOAD,2022-05-26 22:00:00,15.30375679,0.0001319,53.2171,37.7111,80.4265,6.2512,-0.022249,-0.00618282,0.0,0 STARLINK-3460,1 51755U 22016AT  22146.91667824 -.00618282  00000-0 -22249-1 0  9991,2 51755  53.2171  37.7111 0001319  80.4265   6.2512 15.30375679  1309,6852.828,94.095,475.596,473.789,0.0
51755.0,STARLINK-3460,PAYLOAD,2022-05-27 14:00:01,15.29428244,0.0001378,53.2172,34.6163,67.5951,92.9304,-0.026946,-0.00718781,0.0,0 STARLINK-3460,1 51755U 22016AT  22147.58334491 -.00718781  00000-0 -26946-1 0  9999,2 51755  53.2172  34.6163 0001378  67.5951  92.9304 15.29428244  1302,6855.656999999997,94.153,478.467,476.578,0.0
51755.0,STARLINK-3460,PAYLOAD,2022-05-27 16:00:00,15.29299531,0.000137,53.2174,34.2299,74.9852,184.6034,-0.026923,-0.00715571,0.0,0 STARLINK-3460,1 51755U 22016AT  22147.66667824 -.00715571  00000-0 -26923-1 0  9996,2 51755  53.2174  34.2299 0001370  74.9852 184.6034 15.29299531 16168,6856.042,94.161,478.846,476.968,0.0
51755.0,STARLINK-3460,PAYLOAD,2022-05-27 22:00:01,15.28686391,0.0001584,53.2172,33.0743,79.4919,117.2428,-0.015046,-0.00403392,0.0,0 STARLINK-3460,1 51755U 22016AT  22147.91668981 -.00403392  00000-0 -15046-1 0  9998,2 51755  53.2172  33.0743 0001584  79.4919 117.2428 15.28686391  1300,6857.875,94.199,480.826,478.654,0.0
51755.0,STARLINK-3460,PAYLOAD,2022-05-28 14:00:01,15.27896713,0.0001348,53.2173,29.9866,73.2683,193.4853,-0.028128,-0.00724218,0.0,0 STARLINK-3460,1 51755U 22016AT  22148.58334491 -.00724218  00000-0 -28128-1 0  9996,2 51755  53.2173  29.9866 0001348  73.2683 193.4853 15.27896713  1307,6860.238,94.247,483.028,481.17800000000005,0.0
51755.0,STARLINK-3460,PAYLOAD,2022-05-28 20:41:48,15.28736158,0.0001099,53.217,28.7108,110.1968,249.9151,-0.0055971,-0.00155538,0.0,0 STARLINK-3460,1 51755U 22016AT  22148.86236222 -.00155538  00000-0 -55971-2 0  9990,2 51755  53.2170  28.7108 0001099 110.1968 249.9151 15.28736158 16345,6857.726,94.195,480.345,478.838,0.0
51755.0,STARLINK-3460,PAYLOAD,2022-05-29 06:00:02,15.26879214,0.0001177,53.2173,26.9079,82.84299999999998,251.7266,-0.029179,-0.00727972,0.0,0 STARLINK-3460,1 51755U 22016AT  22149.25002315 -.00727972  00000-0 -29179-1 0  9995,2 51755  53.2173  26.9079 0001177  82.8430 251.7266 15.26879214 16405,6863.285,94.31,485.958,484.342,0.0
51755.0,STARLINK-3460,PAYLOAD,2022-05-29 14:00:01,15.26237315,0.0001437,53.2169,25.3692,57.875,309.6623,-0.022212,-0.00542262,0.0,0 STARLINK-3460,1 51755U 22016AT  22149.58334491 -.00542262  00000-0 -22212-1 0  9992,2 51755  53.2169  25.3692 0001437  57.8750 309.6623 15.26237315  1303,6865.21,94.35,488.061,486.088,0.0
51755.0,STARLINK-3460,PAYLOAD,2022-05-29 21:50:19,15.27157065,0.000206,53.217,23.8773,89.3858,270.7378,-0.0081403999999999,-0.00213764,0.0,0 STARLINK-3460,1 51755U 22016AT  22149.90994631 -.00213764  00000-0 -81404-2 0  9997,2 51755  53.2170  23.8773 0002060  89.3858 270.7378 15.27157065 15393,6862.453,94.293,485.731,482.904,0.0
51755.0,STARLINK-3460,PAYLOAD,2022-05-30 14:00:01,15.24837227,0.0001359,53.2174,20.7602,61.7514,40.9113,-0.030872,-0.00724281,0.0,0 STARLINK-3460,1 51755U 22016AT  22150.58334491 -.00724281  00000-0 -30872-1 0  9998,2 51755  53.2174  20.7602 0001359  61.7514  40.9113 15.24837227 16619,6869.411,94.436,492.21,490.343,0.0
51755.0,STARLINK-3460,PAYLOAD,2022-05-30 21:25:44,15.25729157,0.0002116,53.2182,19.3507,93.046,267.0782,-0.0079343,-0.00199916,0.0,0 STARLINK-3460,1 51755U 22016AT  22150.89287131 -.00199916  00000-0 -79343-2 0  9998,2 51755  53.2182  19.3507 0002116  93.0460 267.0782 15.25729157 16657,6866.734,94.381,490.052,487.146,0.0
51755.0,STARLINK-3460,PAYLOAD,2022-05-31 06:00:02,15.23742632,0.0001445,53.2169,17.6969,57.646,105.5168,-0.027003,-0.00613214,0.0,0 STARLINK-3460,1 51755U 22016AT  22151.25002315 -.00613214  00000-0 -27003-1 0  9995,2 51755  53.2169  17.6969 0001445  57.6460 105.5168 15.23742632 16717,6872.701,94.504,495.559,493.573,0.0
